{
  "type": "FeatureCollection",
  "name": "Berlin kbO caution layer (WGS84)",
  "features": [
    {
      "type": "Feature",
      "properties": {
        "name": "Alexanderplatz",
        "title": "Alexanderplatz",
        "description": "Police-designated kriminalitätsbelasteter Ort (kbO). Geometry digitized from Polizei Berlin maps published in January 2026; the current seven-area list has effect from 1 July 2026. Use as a caution/inspection layer for housing research, not as a claim that every street or resident inside is unsafe.",
        "category": "kbO caution layer",
        "source": "Polizei Berlin boundary maps; digitized by ODIS Berlin",
        "stroke": "#b91c1c",
        "stroke-width": 2,
        "stroke-opacity": 0.9,
        "fill": "#ef4444",
        "fill-opacity": 0.18,
        "boundary_map_published": "2026-01-19",
        "current_list_effective": "2026-07-01"
      },
      "geometry": {
        "type": "Polygon",
        "coordinates": [
          [
            [
              13.40472,
              52.5203187
            ],
            [
              13.4060878,
              52.5210007
            ],
            [
              13.4060403,
              52.5210643
            ],
            [
              13.407465,
              52.5217751
            ],
            [
              13.407541,
              52.5217405
            ],
            [
              13.4087378,
              52.5223299
            ],
            [
              13.4096401,
              52.5227114
            ],
            [
              13.4113403,
              52.5237747
            ],
            [
              13.4124801,
              52.5236245
            ],
            [
              13.4159754,
              52.5219774
            ],
            [
              13.415282,
              52.5213648
            ],
            [
              13.4142942,
              52.5203881
            ],
            [
              13.4130405,
              52.5197928
            ],
            [
              13.4124326,
              52.5195038
            ],
            [
              13.4096116,
              52.5181687
            ],
            [
              13.4086903,
              52.5188681
            ],
            [
              13.40756,
              52.5183132
            ],
            [
              13.4053849,
              52.5197639
            ],
            [
              13.4053374,
              52.5198448
            ],
            [
              13.40472,
              52.5203187
            ]
          ]
        ]
      }
    },
    {
      "type": "Feature",
      "properties": {
        "name": "Rigaer Straße",
        "title": "Rigaer Straße",
        "description": "Police-designated kriminalitätsbelasteter Ort (kbO). Geometry digitized from Polizei Berlin maps published in January 2026; the current seven-area list has effect from 1 July 2026. Use as a caution/inspection layer for housing research, not as a claim that every street or resident inside is unsafe.",
        "category": "kbO caution layer",
        "source": "Polizei Berlin boundary maps; digitized by ODIS Berlin",
        "stroke": "#b91c1c",
        "stroke-width": 2,
        "stroke-opacity": 0.9,
        "fill": "#ef4444",
        "fill-opacity": 0.18,
        "boundary_map_published": "2026-01-19",
        "current_list_effective": "2026-07-01"
      },
      "geometry": {
        "type": "Polygon",
        "coordinates": [
          [
            [
              13.4536596,
              52.5183912
            ],
            [
              13.4547614,
              52.5181427
            ],
            [
              13.4550036,
              52.5185993
            ],
            [
              13.4549941,
              52.5186455
            ],
            [
              13.4550891,
              52.5186744
            ],
            [
              13.4552031,
              52.5186976
            ],
            [
              13.4553075,
              52.5186802
            ],
            [
              13.4553455,
              52.518738
            ],
            [
              13.4569317,
              52.5184548
            ],
            [
              13.4567655,
              52.5181716
            ],
            [
              13.4571455,
              52.5180762
            ],
            [
              13.4573592,
              52.5183854
            ],
            [
              13.462322,
              52.5175069
            ],
            [
              13.4623315,
              52.5174838
            ],
            [
              13.4622555,
              52.5174173
            ],
            [
              13.4621653,
              52.517241
            ],
            [
              13.462056,
              52.517033
            ],
            [
              13.4625974,
              52.5169318
            ],
            [
              13.4626354,
              52.5169145
            ],
            [
              13.4635473,
              52.5167671
            ],
            [
              13.4637895,
              52.5172555
            ],
            [
              13.4655846,
              52.5169434
            ],
            [
              13.4654065,
              52.5165691
            ],
            [
              13.4649696,
              52.5157079
            ],
            [
              13.4645707,
              52.514864
            ],
            [
              13.4636826,
              52.5149594
            ],
            [
              13.4542319,
              52.5158958
            ],
            [
              13.4534506,
              52.5180625
            ],
            [
              13.4534506,
              52.5181434
            ],
            [
              13.4536264,
              52.5183818
            ],
            [
              13.4536596,
              52.5183912
            ]
          ]
        ]
      }
    },
    {
      "type": "Feature",
      "properties": {
        "name": "Warschauer Brücke",
        "title": "Warschauer Brücke",
        "description": "Police-designated kriminalitätsbelasteter Ort (kbO). Geometry digitized from Polizei Berlin maps published in January 2026; the current seven-area list has effect from 1 July 2026. Use as a caution/inspection layer for housing research, not as a claim that every street or resident inside is unsafe.",
        "category": "kbO caution layer",
        "source": "Polizei Berlin boundary maps; digitized by ODIS Berlin",
        "stroke": "#b91c1c",
        "stroke-width": 2,
        "stroke-opacity": 0.9,
        "fill": "#ef4444",
        "fill-opacity": 0.18,
        "boundary_map_published": "2026-01-19",
        "current_list_effective": "2026-07-01"
      },
      "geometry": {
        "type": "Polygon",
        "coordinates": [
          [
            [
              13.4505308,
              52.5087547
            ],
            [
              13.4552047,
              52.5079232
            ],
            [
              13.4554286,
              52.5078704
            ],
            [
              13.4584349,
              52.5068192
            ],
            [
              13.4585537,
              52.5067636
            ],
            [
              13.4588598,
              52.5066551
            ],
            [
              13.4589968,
              52.5066162
            ],
            [
              13.4589512,
              52.5064549
            ],
            [
              13.4588986,
              52.5062936
            ],
            [
              13.4584349,
              52.5053335
            ],
            [
              13.4583595,
              52.5052841
            ],
            [
              13.4583092,
              52.5051701
            ],
            [
              13.4582727,
              52.5050839
            ],
            [
              13.458211,
              52.5049782
            ],
            [
              13.4580717,
              52.5046959
            ],
            [
              13.4580671,
              52.5046633
            ],
            [
              13.4580831,
              52.5045875
            ],
            [
              13.457793,
              52.5040494
            ],
            [
              13.4577221,
              52.5040535
            ],
            [
              13.4576056,
              52.5040368
            ],
            [
              13.4575611,
              52.5040167
            ],
            [
              13.4575211,
              52.5040174
            ],
            [
              13.4527284,
              52.5050436
            ],
            [
              13.4526793,
              52.5049796
            ],
            [
              13.4521139,
              52.5051166
            ],
            [
              13.4518969,
              52.5048419
            ],
            [
              13.4515131,
              52.5049601
            ],
            [
              13.4514023,
              52.5048447
            ],
            [
              13.4499569,
              52.5052431
            ],
            [
              13.4484857,
              52.5033464
            ],
            [
              13.4484172,
              52.5031657
            ],
            [
              13.4479329,
              52.5025065
            ],
            [
              13.4471791,
              52.5027096
            ],
            [
              13.4468181,
              52.5024287
            ],
            [
              13.445114,
              52.5011132
            ],
            [
              13.4447484,
              52.5012772
            ],
            [
              13.4461054,
              52.5023202
            ],
            [
              13.4486045,
              52.5054044
            ],
            [
              13.4498244,
              52.5073177
            ],
            [
              13.4499386,
              52.5074845
            ],
            [
              13.4501122,
              52.507757
            ],
            [
              13.4505308,
              52.5087547
            ]
          ]
        ]
      }
    },
    {
      "type": "Feature",
      "properties": {
        "name": "Görlitzer Park/Wrangelkiez",
        "title": "Görlitzer Park/Wrangelkiez",
        "description": "Police-designated kriminalitätsbelasteter Ort (kbO). Geometry digitized from Polizei Berlin maps published in January 2026; the current seven-area list has effect from 1 July 2026. Use as a caution/inspection layer for housing research, not as a claim that every street or resident inside is unsafe.",
        "category": "kbO caution layer",
        "source": "Polizei Berlin boundary maps; digitized by ODIS Berlin",
        "stroke": "#b91c1c",
        "stroke-width": 2,
        "stroke-opacity": 0.9,
        "fill": "#ef4444",
        "fill-opacity": 0.18,
        "boundary_map_published": "2026-01-19",
        "current_list_effective": "2026-07-01"
      },
      "geometry": {
        "type": "Polygon",
        "coordinates": [
          [
            [
              13.4412579,
              52.5029098
            ],
            [
              13.4451871,
              52.5010687
            ],
            [
              13.4448764,
              52.5008628
            ],
            [
              13.4440997,
              52.5001063
            ],
            [
              13.4456531,
              52.499322
            ],
            [
              13.4459455,
              52.4992608
            ],
            [
              13.4461008,
              52.4991774
            ],
            [
              13.4460094,
              52.4991384
            ],
            [
              13.4472522,
              52.4984431
            ],
            [
              13.4474258,
              52.4983763
            ],
            [
              13.448568,
              52.4976698
            ],
            [
              13.4490705,
              52.497375
            ],
            [
              13.4495914,
              52.4970802
            ],
            [
              13.4501122,
              52.4968187
            ],
            [
              13.4501762,
              52.4967686
            ],
            [
              13.4503133,
              52.4966796
            ],
            [
              13.450094,
              52.4965461
            ],
            [
              13.4487873,
              52.4972582
            ],
            [
              13.4475537,
              52.497948
            ],
            [
              13.445452,
              52.4990606
            ],
            [
              13.4448695,
              52.4984918
            ],
            [
              13.444865,
              52.4983749
            ],
            [
              13.4444675,
              52.4978882
            ],
            [
              13.4445451,
              52.4978298
            ],
            [
              13.4442984,
              52.4975294
            ],
            [
              13.4440243,
              52.4976434
            ],
            [
              13.4425052,
              52.4961205
            ],
            [
              13.4453424,
              52.4952388
            ],
            [
              13.4453607,
              52.495172
            ],
            [
              13.4444241,
              52.4944627
            ],
            [
              13.4446891,
              52.4943125
            ],
            [
              13.4445291,
              52.494204
            ],
            [
              13.444255,
              52.4942902
            ],
            [
              13.4442048,
              52.4942875
            ],
            [
              13.4431631,
              52.4935002
            ],
            [
              13.4369129,
              52.4955475
            ],
            [
              13.4311197,
              52.4975002
            ],
            [
              13.4310009,
              52.4974946
            ],
            [
              13.4267565,
              52.4989131
            ],
            [
              13.426664,
              52.4989083
            ],
            [
              13.4266011,
              52.4988728
            ],
            [
              13.4263704,
              52.4985724
            ],
            [
              13.4253196,
              52.4989257
            ],
            [
              13.424696,
              52.498909
            ],
            [
              13.424664,
              52.4988853
            ],
            [
              13.4243601,
              52.4988812
            ],
            [
              13.4243601,
              52.4992747
            ],
            [
              13.4263133,
              52.4993248
            ],
            [
              13.4275743,
              52.4993999
            ],
            [
              13.4276383,
              52.4993915
            ],
            [
              13.4289587,
              52.4994472
            ],
            [
              13.4299044,
              52.4997086
            ],
            [
              13.4294521,
              52.5006654
            ],
            [
              13.4313436,
              52.5010102
            ],
            [
              13.4320015,
              52.4997364
            ],
            [
              13.4330249,
              52.4997531
            ],
            [
              13.433267,
              52.4993081
            ],
            [
              13.4328604,
              52.4992692
            ],
            [
              13.4327873,
              52.4991635
            ],
            [
              13.4372602,
              52.49777
            ],
            [
              13.4382059,
              52.4974557
            ],
            [
              13.4410157,
              52.5002426
            ],
            [
              13.4409929,
              52.5003872
            ],
            [
              13.4406091,
              52.5003845
            ],
            [
              13.4404309,
              52.5008823
            ],
            [
              13.440833,
              52.5009129
            ],
            [
              13.4412716,
              52.5011827
            ],
            [
              13.441267,
              52.5012522
            ],
            [
              13.4414863,
              52.5014191
            ],
            [
              13.4418747,
              52.5013662
            ],
            [
              13.4426651,
              52.5019726
            ],
            [
              13.4410249,
              52.5027568
            ],
            [
              13.4412579,
              52.5029098
            ]
          ]
        ]
      }
    },
    {
      "type": "Feature",
      "properties": {
        "name": "Kottbusser Tor",
        "title": "Kottbusser Tor",
        "description": "Police-designated kriminalitätsbelasteter Ort (kbO). Geometry digitized from Polizei Berlin maps published in January 2026; the current seven-area list has effect from 1 July 2026. Use as a caution/inspection layer for housing research, not as a claim that every street or resident inside is unsafe.",
        "category": "kbO caution layer",
        "source": "Polizei Berlin boundary maps; digitized by ODIS Berlin",
        "stroke": "#b91c1c",
        "stroke-width": 2,
        "stroke-opacity": 0.9,
        "fill": "#ef4444",
        "fill-opacity": 0.18,
        "boundary_map_published": "2026-01-19",
        "current_list_effective": "2026-07-01"
      },
      "geometry": {
        "type": "Polygon",
        "coordinates": [
          [
            [
              13.4181141,
              52.5005959
            ],
            [
              13.4188254,
              52.5004014
            ],
            [
              13.4187309,
              52.5002681
            ],
            [
              13.4196894,
              52.5000186
            ],
            [
              13.4197778,
              52.500125
            ],
            [
              13.4203685,
              52.4999696
            ],
            [
              13.4200229,
              52.4995623
            ],
            [
              13.4200249,
              52.4993972
            ],
            [
              13.4199847,
              52.4993715
            ],
            [
              13.4199867,
              52.4989152
            ],
            [
              13.4200892,
              52.4989311
            ],
            [
              13.4204107,
              52.4989311
            ],
            [
              13.4204147,
              52.4988027
            ],
            [
              13.4203444,
              52.4988039
            ],
            [
              13.4200149,
              52.4984039
            ],
            [
              13.419621,
              52.4985165
            ],
            [
              13.419615,
              52.4985275
            ],
            [
              13.4195587,
              52.4985446
            ],
            [
              13.4195547,
              52.4985556
            ],
            [
              13.4194945,
              52.4985776
            ],
            [
              13.4194703,
              52.498558
            ],
            [
              13.4194342,
              52.4985532
            ],
            [
              13.4194121,
              52.4985764
            ],
            [
              13.4193337,
              52.4986106
            ],
            [
              13.4193056,
              52.4986094
            ],
            [
              13.4192734,
              52.4986143
            ],
            [
              13.4192674,
              52.4986033
            ],
            [
              13.4192875,
              52.4985776
            ],
            [
              13.4192774,
              52.498547
            ],
            [
              13.4192634,
              52.4985409
            ],
            [
              13.4192393,
              52.4985421
            ],
            [
              13.4192212,
              52.498547
            ],
            [
              13.4192011,
              52.498536
            ],
            [
              13.4192152,
              52.4985189
            ],
            [
              13.4192172,
              52.498503
            ],
            [
              13.4192694,
              52.4984883
            ],
            [
              13.4192312,
              52.4984418
            ],
            [
              13.4191046,
              52.4984162
            ],
            [
              13.4190544,
              52.4984345
            ],
            [
              13.4190263,
              52.4984369
            ],
            [
              13.4190182,
              52.4984223
            ],
            [
              13.4190303,
              52.4984027
            ],
            [
              13.418962,
              52.4983843
            ],
            [
              13.4189439,
              52.4983905
            ],
            [
              13.4189339,
              52.4983819
            ],
            [
              13.4189359,
              52.4983562
            ],
            [
              13.4189359,
              52.4983489
            ],
            [
              13.4189539,
              52.4983342
            ],
            [
              13.4189861,
              52.4982975
            ],
            [
              13.41897,
              52.4982828
            ],
            [
              13.4189841,
              52.4982718
            ],
            [
              13.4190102,
              52.4982681
            ],
            [
              13.4190203,
              52.4982571
            ],
            [
              13.4190142,
              52.4982461
            ],
            [
              13.4190323,
              52.4982363
            ],
            [
              13.4190544,
              52.4982094
            ],
            [
              13.4184838,
              52.4980798
            ],
            [
              13.4184677,
              52.4981006
            ],
            [
              13.4184597,
              52.4981299
            ],
            [
              13.4184717,
              52.4981373
            ],
            [
              13.4183291,
              52.4983244
            ],
            [
              13.4180779,
              52.4982975
            ],
            [
              13.4179171,
              52.4982694
            ],
            [
              13.4177504,
              52.4982718
            ],
            [
              13.4173525,
              52.4983379
            ],
            [
              13.4172842,
              52.4982314
            ],
            [
              13.4173184,
              52.4981996
            ],
            [
              13.4173907,
              52.4981837
            ],
            [
              13.4174068,
              52.4981678
            ],
            [
              13.4173646,
              52.4981446
            ],
            [
              13.4173023,
              52.4981593
            ],
            [
              13.4171998,
              52.4980651
            ],
            [
              13.4171616,
              52.4980602
            ],
            [
              13.41681,
              52.498147
            ],
            [
              13.416804,
              52.4981617
            ],
            [
              13.4166111,
              52.4982106
            ],
            [
              13.4165528,
              52.4981373
            ],
            [
              13.416378,
              52.4981776
            ],
            [
              13.4164925,
              52.4983269
            ],
            [
              13.4164805,
              52.4983746
            ],
            [
              13.4164524,
              52.4983758
            ],
            [
              13.4164343,
              52.4984749
            ],
            [
              13.4164403,
              52.4985116
            ],
            [
              13.416378,
              52.4985299
            ],
            [
              13.4162976,
              52.4985226
            ],
            [
              13.4162836,
              52.4985568
            ],
            [
              13.4162956,
              52.4985691
            ],
            [
              13.4161952,
              52.4989201
            ],
            [
              13.4169708,
              52.4990265
            ],
            [
              13.4168944,
              52.4993079
            ],
            [
              13.417015,
              52.4993275
            ],
            [
              13.4163439,
              52.4995244
            ],
            [
              13.4165227,
              52.4997018
            ],
            [
              13.4167136,
              52.4999562
            ],
            [
              13.4166071,
              52.500065
            ],
            [
              13.4166714,
              52.5001433
            ],
            [
              13.4159741,
              52.5003207
            ],
            [
              13.4161952,
              52.5003831
            ],
            [
              13.417023,
              52.5006094
            ],
            [
              13.4173103,
              52.500717
            ],
            [
              13.4177182,
              52.5001739
            ],
            [
              13.4181442,
              52.5002901
            ],
            [
              13.4182326,
              52.5004247
            ],
            [
              13.4181904,
              52.5004357
            ],
            [
              13.4180096,
              52.5004834
            ],
            [
              13.4179814,
              52.500536
            ],
            [
              13.4179995,
              52.5005641
            ],
            [
              13.4181141,
              52.5005959
            ]
          ]
        ]
      }
    },
    {
      "type": "Feature",
      "properties": {
        "name": "Hermannplatz/Donaukiez",
        "title": "Hermannplatz/Donaukiez",
        "description": "Police-designated kriminalitätsbelasteter Ort (kbO). Geometry digitized from Polizei Berlin maps published in January 2026; the current seven-area list has effect from 1 July 2026. Use as a caution/inspection layer for housing research, not as a claim that every street or resident inside is unsafe.",
        "category": "kbO caution layer",
        "source": "Polizei Berlin boundary maps; digitized by ODIS Berlin",
        "stroke": "#b91c1c",
        "stroke-width": 2,
        "stroke-opacity": 0.9,
        "fill": "#ef4444",
        "fill-opacity": 0.18,
        "boundary_map_published": "2026-01-19",
        "current_list_effective": "2026-07-01"
      },
      "geometry": {
        "type": "Polygon",
        "coordinates": [
          [
            [
              13.4254796,
              52.4879747
            ],
            [
              13.4338521,
              52.4850091
            ],
            [
              13.4359152,
              52.4839646
            ],
            [
              13.4358672,
              52.4836139
            ],
            [
              13.4357593,
              52.4835847
            ],
            [
              13.4338281,
              52.4820872
            ],
            [
              13.433996,
              52.4819703
            ],
            [
              13.4337801,
              52.481722
            ],
            [
              13.4334922,
              52.4817293
            ],
            [
              13.4330124,
              52.4816708
            ],
            [
              13.4329764,
              52.4816124
            ],
            [
              13.4323767,
              52.4815393
            ],
            [
              13.4323167,
              52.4815832
            ],
            [
              13.4273148,
              52.4809987
            ],
            [
              13.426859,
              52.4807138
            ],
            [
              13.426751,
              52.4807138
            ],
            [
              13.426715,
              52.480765
            ],
            [
              13.4262472,
              52.4807065
            ],
            [
              13.4262472,
              52.4806773
            ],
            [
              13.4260673,
              52.48067
            ],
            [
              13.4260073,
              52.4807869
            ],
            [
              13.4259594,
              52.4807942
            ],
            [
              13.4253716,
              52.4805969
            ],
            [
              13.4256475,
              52.4798664
            ],
            [
              13.4252637,
              52.4795888
            ],
            [
              13.4249758,
              52.4804874
            ],
            [
              13.424496,
              52.4808234
            ],
            [
              13.4248558,
              52.4808672
            ],
            [
              13.4247119,
              52.4813129
            ],
            [
              13.4246519,
              52.4822917
            ],
            [
              13.4246279,
              52.4826278
            ],
            [
              13.4246639,
              52.4826789
            ],
            [
              13.4246159,
              52.4827374
            ],
            [
              13.4246159,
              52.4836066
            ],
            [
              13.4245679,
              52.4838331
            ],
            [
              13.424544,
              52.4838915
            ],
            [
              13.4242681,
              52.4846183
            ],
            [
              13.4239502,
              52.4856081
            ],
            [
              13.4239082,
              52.4856045
            ],
            [
              13.4239502,
              52.4862911
            ],
            [
              13.4237043,
              52.4863714
            ],
            [
              13.4239862,
              52.4866855
            ],
            [
              13.4240642,
              52.4866819
            ],
            [
              13.4249818,
              52.4878104
            ],
            [
              13.4254796,
              52.4879747
            ]
          ]
        ]
      }
    },
    {
      "type": "Feature",
      "properties": {
        "name": "Hermannstraße/Bhf Neukölln",
        "title": "Hermannstraße/Bhf Neukölln",
        "description": "Police-designated kriminalitätsbelasteter Ort (kbO). Geometry digitized from Polizei Berlin maps published in January 2026; the current seven-area list has effect from 1 July 2026. Use as a caution/inspection layer for housing research, not as a claim that every street or resident inside is unsafe.",
        "category": "kbO caution layer",
        "source": "Polizei Berlin boundary maps; digitized by ODIS Berlin",
        "stroke": "#b91c1c",
        "stroke-width": 2,
        "stroke-opacity": 0.9,
        "fill": "#ef4444",
        "fill-opacity": 0.18,
        "boundary_map_published": "2026-01-19",
        "current_list_effective": "2026-07-01"
      },
      "geometry": {
        "type": "Polygon",
        "coordinates": [
          [
            [
              13.4251137,
              52.4741532
            ],
            [
              13.4274407,
              52.4744052
            ],
            [
              13.4277826,
              52.4745185
            ],
            [
              13.4279265,
              52.4743578
            ],
            [
              13.4279745,
              52.474197
            ],
            [
              13.4282804,
              52.473565
            ],
            [
              13.4286402,
              52.4729732
            ],
            [
              13.4287122,
              52.4727942
            ],
            [
              13.4296418,
              52.4710296
            ],
            [
              13.436491,
              52.4718516
            ],
            [
              13.4367309,
              52.4719393
            ],
            [
              13.4369828,
              52.4719795
            ],
            [
              13.4382303,
              52.4721585
            ],
            [
              13.438818,
              52.4721804
            ],
            [
              13.4399396,
              52.4723265
            ],
            [
              13.441367,
              52.4725494
            ],
            [
              13.4415529,
              52.4715082
            ],
            [
              13.4416788,
              52.4713255
            ],
            [
              13.4415709,
              52.4712999
            ],
            [
              13.4417868,
              52.4700687
            ],
            [
              13.4418708,
              52.4699956
            ],
            [
              13.4419067,
              52.4698678
            ],
            [
              13.4420087,
              52.4698532
            ],
            [
              13.4430223,
              52.4699883
            ],
            [
              13.4431542,
              52.4699774
            ],
            [
              13.4443477,
              52.4701454
            ],
            [
              13.4444437,
              52.4700066
            ],
            [
              13.4446836,
              52.4692759
            ],
            [
              13.4429023,
              52.4690713
            ],
            [
              13.4427284,
              52.4690567
            ],
            [
              13.4424285,
              52.4690238
            ],
            [
              13.4420147,
              52.4689178
            ],
            [
              13.4422006,
              52.4675879
            ],
            [
              13.4421586,
              52.4675587
            ],
            [
              13.4407192,
              52.4674015
            ],
            [
              13.4381103,
              52.4671019
            ],
            [
              13.4358493,
              52.4668243
            ],
            [
              13.4332763,
              52.4647708
            ],
            [
              13.4331744,
              52.4646283
            ],
            [
              13.4328505,
              52.4645479
            ],
            [
              13.4318009,
              52.4663419
            ],
            [
              13.4306134,
              52.4661921
            ],
            [
              13.4305415,
              52.466141
            ],
            [
              13.4299597,
              52.4660825
            ],
            [
              13.4298218,
              52.4661008
            ],
            [
              13.4294259,
              52.466035
            ],
            [
              13.4280585,
              52.4658341
            ],
            [
              13.4279865,
              52.4658998
            ],
            [
              13.4273748,
              52.4658304
            ],
            [
              13.4273508,
              52.465761
            ],
            [
              13.4266491,
              52.4656952
            ],
            [
              13.4265771,
              52.4657098
            ],
            [
              13.4234644,
              52.4653298
            ],
            [
              13.4233325,
              52.4653298
            ],
            [
              13.4216831,
              52.4651289
            ],
            [
              13.4216232,
              52.4658304
            ],
            [
              13.4212993,
              52.4658012
            ],
            [
              13.4209095,
              52.4674235
            ],
            [
              13.4230446,
              52.4676975
            ],
            [
              13.4261333,
              52.4680081
            ],
            [
              13.4305295,
              52.4685452
            ],
            [
              13.429252,
              52.4709309
            ],
            [
              13.4278666,
              52.4734773
            ],
            [
              13.4254436,
              52.4732143
            ],
            [
              13.4251137,
              52.4741532
            ]
          ]
        ]
      }
    }
  ],
  "metadata": {
    "coordinate_reference_system": "EPSG:4326",
    "purpose": "Housing-search inspection layer; not a blanket no-go classification",
    "boundary_map_published": "2026-01-19",
    "current_list_effective": "2026-07-01",
    "status_checked": "2026-08-02"
  }
}
