{
  "type": "FeatureCollection",
  "name": "Berlin U-Bahn lines U1-U9",
  "metadata": {
    "generated": "2026-08-02T08:29:14.659Z",
    "crs": "EPSG:4326",
    "note": "Route paths connect official GTFS station coordinates in service order; they are not engineering-grade track centerlines.",
    "attribution": "Verkehrsverbund Berlin-Brandenburg (VBB), CC BY 4.0"
  },
  "features": [
    {
      "type": "Feature",
      "id": "U1",
      "properties": {
        "line": "U1",
        "name": "Berlin U-Bahn U1",
        "mode": "subway",
        "operator": "BVG",
        "color": "#7DAD4C",
        "stroke": "#7DAD4C",
        "stroke-width": 3,
        "stroke-opacity": 0.9,
        "from": "Warschauer Str.",
        "to": "Uhlandstr.",
        "station_count": 13,
        "stations": [
          "Warschauer Str.",
          "Schlesisches Tor",
          "Görlitzer Bahnhof",
          "Kottbusser Tor",
          "Prinzenstr.",
          "Hallesches Tor",
          "Möckernbrücke",
          "Gleisdreieck",
          "Kurfürstenstr.",
          "Nollendorfplatz",
          "Wittenbergplatz",
          "Kurfürstendamm",
          "Uhlandstr."
        ],
        "source": "VBB GTFS-derived vbb-lines and vbb-stations datasets",
        "source_license": "CC BY 4.0"
      },
      "geometry": {
        "type": "LineString",
        "coordinates": [
          [
            13.449159,
            52.505765
          ],
          [
            13.441791,
            52.501147
          ],
          [
            13.427145,
            52.499145
          ],
          [
            13.417748,
            52.499047
          ],
          [
            13.406551,
            52.498327
          ],
          [
            13.39176,
            52.497774
          ],
          [
            13.383256,
            52.498944
          ],
          [
            13.374293,
            52.499587
          ],
          [
            13.362857,
            52.499778
          ],
          [
            13.353825,
            52.499644
          ],
          [
            13.342561,
            52.502109
          ],
          [
            13.331419,
            52.503763
          ],
          [
            13.326233,
            52.502742
          ]
        ]
      }
    },
    {
      "type": "Feature",
      "id": "U2",
      "properties": {
        "line": "U2",
        "name": "Berlin U-Bahn U2",
        "mode": "subway",
        "operator": "BVG",
        "color": "#DA421E",
        "stroke": "#DA421E",
        "stroke-width": 3,
        "stroke-opacity": 0.9,
        "from": "Pankow",
        "to": "Ruhleben",
        "station_count": 29,
        "stations": [
          "Pankow",
          "Vinetastr.",
          "Schönhauser Allee",
          "Eberswalder Str.",
          "Senefelderplatz",
          "Rosa-Luxemburg-Platz",
          "Alexanderplatz Bhf",
          "Klosterstr.",
          "Märkisches Museum",
          "Spittelmarkt",
          "Hausvogteiplatz",
          "Stadtmitte",
          "Anton-Wilhelm-Amo-Str.",
          "Potsdamer Platz Bhf",
          "Mendelssohn-Bartholdy-Park",
          "Gleisdreieck",
          "Bülowstr.",
          "Nollendorfplatz",
          "Wittenbergplatz",
          "Zoologischer Garten Bhf",
          "Ernst-Reuter-Platz",
          "Deutsche Oper",
          "Bismarckstr.",
          "Sophie-Charlotte-Platz",
          "Kaiserdamm",
          "Theodor-Heuss-Platz",
          "Neu-Westend",
          "Olympia-Stadion",
          "Ruhleben"
        ],
        "source": "VBB GTFS-derived vbb-lines and vbb-stations datasets",
        "source_license": "CC BY 4.0"
      },
      "geometry": {
        "type": "LineString",
        "coordinates": [
          [
            13.412279,
            52.567281
          ],
          [
            13.41377,
            52.559517
          ],
          [
            13.415138,
            52.549336
          ],
          [
            13.41216,
            52.541085
          ],
          [
            13.412625,
            52.532622
          ],
          [
            13.410405,
            52.528191
          ],
          [
            13.411267,
            52.521512
          ],
          [
            13.412455,
            52.517229
          ],
          [
            13.408767,
            52.512007
          ],
          [
            13.402031,
            52.511411
          ],
          [
            13.395346,
            52.513361
          ],
          [
            13.389719,
            52.511495
          ],
          [
            13.383798,
            52.511519
          ],
          [
            13.376547,
            52.509358
          ],
          [
            13.374679,
            52.503185
          ],
          [
            13.374293,
            52.499587
          ],
          [
            13.362456,
            52.497627
          ],
          [
            13.353825,
            52.499644
          ],
          [
            13.342561,
            52.502109
          ],
          [
            13.332707,
            52.506921
          ],
          [
            13.322581,
            52.511582
          ],
          [
            13.30942,
            52.511827
          ],
          [
            13.305335,
            52.511543
          ],
          [
            13.297463,
            52.51097
          ],
          [
            13.281695,
            52.509985
          ],
          [
            13.272977,
            52.509798
          ],
          [
            13.25991,
            52.516409
          ],
          [
            13.2505,
            52.517048
          ],
          [
            13.241902,
            52.525587
          ]
        ]
      }
    },
    {
      "type": "Feature",
      "id": "U3",
      "properties": {
        "line": "U3",
        "name": "Berlin U-Bahn U3",
        "mode": "subway",
        "operator": "BVG",
        "color": "#16683D",
        "stroke": "#16683D",
        "stroke-width": 3,
        "stroke-opacity": 0.9,
        "from": "Krumme Lanke",
        "to": "Warschauer Str.",
        "station_count": 24,
        "stations": [
          "Krumme Lanke",
          "Onkel Toms Hütte",
          "Oskar-Helene-Heim",
          "Freie Universität (Thielplatz)",
          "Dahlem-Dorf",
          "Podbielskiallee",
          "Breitenbachplatz",
          "Rüdesheimer Platz",
          "Heidelberger Platz",
          "Fehrbelliner Platz",
          "Hohenzollernplatz",
          "Spichernstr.",
          "Augsburger Str.",
          "Wittenbergplatz",
          "Nollendorfplatz",
          "Kurfürstenstr.",
          "Gleisdreieck",
          "Möckernbrücke",
          "Hallesches Tor",
          "Prinzenstr.",
          "Kottbusser Tor",
          "Görlitzer Bahnhof",
          "Schlesisches Tor",
          "Warschauer Str."
        ],
        "source": "VBB GTFS-derived vbb-lines and vbb-stations datasets",
        "source_license": "CC BY 4.0"
      },
      "geometry": {
        "type": "LineString",
        "coordinates": [
          [
            13.24036,
            52.442615
          ],
          [
            13.254016,
            52.450146
          ],
          [
            13.26891,
            52.450419
          ],
          [
            13.281651,
            52.451
          ],
          [
            13.290011,
            52.457695
          ],
          [
            13.295203,
            52.464172
          ],
          [
            13.309276,
            52.467342
          ],
          [
            13.314387,
            52.472462
          ],
          [
            13.31229,
            52.480124
          ],
          [
            13.314405,
            52.490365
          ],
          [
            13.324051,
            52.493833
          ],
          [
            13.330613,
            52.496582
          ],
          [
            13.336461,
            52.500442
          ],
          [
            13.342561,
            52.502109
          ],
          [
            13.353825,
            52.499644
          ],
          [
            13.362857,
            52.499778
          ],
          [
            13.374293,
            52.499587
          ],
          [
            13.383256,
            52.498944
          ],
          [
            13.39176,
            52.497774
          ],
          [
            13.406551,
            52.498327
          ],
          [
            13.417748,
            52.499047
          ],
          [
            13.427145,
            52.499145
          ],
          [
            13.441791,
            52.501147
          ],
          [
            13.449159,
            52.505765
          ]
        ]
      }
    },
    {
      "type": "Feature",
      "id": "U4",
      "properties": {
        "line": "U4",
        "name": "Berlin U-Bahn U4",
        "mode": "subway",
        "operator": "BVG",
        "color": "#F0D722",
        "stroke": "#F0D722",
        "stroke-width": 3,
        "stroke-opacity": 0.9,
        "from": "Nollendorfplatz",
        "to": "Innsbrucker Platz",
        "station_count": 5,
        "stations": [
          "Nollendorfplatz",
          "Viktoria-Luise-Platz",
          "Bayerischer Platz",
          "Rathaus Schöneberg",
          "Innsbrucker Platz"
        ],
        "source": "VBB GTFS-derived vbb-lines and vbb-stations datasets",
        "source_license": "CC BY 4.0"
      },
      "geometry": {
        "type": "LineString",
        "coordinates": [
          [
            13.353825,
            52.499644
          ],
          [
            13.343264,
            52.496169
          ],
          [
            13.340237,
            52.488654
          ],
          [
            13.341989,
            52.483332
          ],
          [
            13.342875,
            52.4781
          ]
        ]
      }
    },
    {
      "type": "Feature",
      "id": "U5",
      "properties": {
        "line": "U5",
        "name": "Berlin U-Bahn U5",
        "mode": "subway",
        "operator": "BVG",
        "color": "#7E5330",
        "stroke": "#7E5330",
        "stroke-width": 3,
        "stroke-opacity": 0.9,
        "from": "Hönow",
        "to": "Berlin Hauptbahnhof",
        "station_count": 26,
        "stations": [
          "Hönow",
          "Louis-Lewin-Str.",
          "Hellersdorf",
          "Cottbusser Platz",
          "Kienberg (Gärten der Welt)",
          "Kaulsdorf-Nord",
          "Wuhletal",
          "Elsterwerdaer Platz",
          "Biesdorf-Süd",
          "Tierpark",
          "Friedrichsfelde",
          "Lichtenberg Bhf",
          "Magdalenenstr.",
          "Frankfurter Allee",
          "Samariterstr.",
          "Frankfurter Tor",
          "Weberwiese",
          "Strausberger Platz",
          "Schillingstr.",
          "Alexanderplatz Bhf",
          "Rotes Rathaus",
          "Museumsinsel",
          "Unter den Linden",
          "Brandenburger Tor",
          "Bundestag",
          "Berlin Hauptbahnhof"
        ],
        "source": "VBB GTFS-derived vbb-lines and vbb-stations datasets",
        "source_license": "CC BY 4.0"
      },
      "geometry": {
        "type": "LineString",
        "coordinates": [
          [
            13.634541,
            52.538105
          ],
          [
            13.619707,
            52.539135
          ],
          [
            13.605323,
            52.536328
          ],
          [
            13.596894,
            52.533963
          ],
          [
            13.59055,
            52.52849
          ],
          [
            13.588763,
            52.521436
          ],
          [
            13.574536,
            52.512724
          ],
          [
            13.560646,
            52.505133
          ],
          [
            13.547326,
            52.499517
          ],
          [
            13.523626,
            52.497236
          ],
          [
            13.513544,
            52.505464
          ],
          [
            13.498359,
            52.510672
          ],
          [
            13.487492,
            52.512457
          ],
          [
            13.475848,
            52.51358
          ],
          [
            13.465347,
            52.514662
          ],
          [
            13.454085,
            52.515772
          ],
          [
            13.443278,
            52.516848
          ],
          [
            13.432208,
            52.518025
          ],
          [
            13.421895,
            52.520316
          ],
          [
            13.411267,
            52.521512
          ],
          [
            13.407061,
            52.518462
          ],
          [
            13.400394,
            52.518086
          ],
          [
            13.388876,
            52.516996
          ],
          [
            13.381937,
            52.516511
          ],
          [
            13.372952,
            52.52011
          ],
          [
            13.369075,
            52.525605
          ]
        ]
      }
    },
    {
      "type": "Feature",
      "id": "U6",
      "properties": {
        "line": "U6",
        "name": "Berlin U-Bahn U6",
        "mode": "subway",
        "operator": "BVG",
        "color": "#8C6DAB",
        "stroke": "#8C6DAB",
        "stroke-width": 3,
        "stroke-opacity": 0.9,
        "from": "Alt-Mariendorf",
        "to": "Alt-Tegel",
        "station_count": 29,
        "stations": [
          "Alt-Mariendorf",
          "Westphalweg",
          "Ullsteinstr.",
          "Kaiserin-Augusta-Str.",
          "Alt-Tempelhof",
          "Tempelhof",
          "Paradestr.",
          "Platz der Luftbrücke",
          "Mehringdamm",
          "Hallesches Tor",
          "Kochstr. (Checkpoint Charlie)",
          "Stadtmitte",
          "Unter den Linden",
          "Friedrichstr. Bhf",
          "Oranienburger Tor",
          "Naturkundemuseum",
          "Schwartzkopffstr.",
          "Reinickendorfer Str.",
          "Wedding",
          "Leopoldplatz",
          "Seestr.",
          "Rehberge",
          "Afrikanische Str.",
          "Kurt-Schumacher-Platz",
          "Scharnweberstr.",
          "Otisstraße",
          "Holzhauser Str.",
          "Borsigwerke",
          "Alt-Tegel"
        ],
        "source": "VBB GTFS-derived vbb-lines and vbb-stations datasets",
        "source_license": "CC BY 4.0"
      },
      "geometry": {
        "type": "LineString",
        "coordinates": [
          [
            13.38792,
            52.438609
          ],
          [
            13.385744,
            52.445646
          ],
          [
            13.384771,
            52.45345
          ],
          [
            13.384905,
            52.460512
          ],
          [
            13.385796,
            52.46593
          ],
          [
            13.3859,
            52.470574
          ],
          [
            13.386725,
            52.478142
          ],
          [
            13.385927,
            52.48487
          ],
          [
            13.38814,
            52.493567
          ],
          [
            13.39176,
            52.497774
          ],
          [
            13.390863,
            52.506673
          ],
          [
            13.389719,
            52.511495
          ],
          [
            13.388876,
            52.516996
          ],
          [
            13.387253,
            52.520304
          ],
          [
            13.387587,
            52.525163
          ],
          [
            13.382415,
            52.531254
          ],
          [
            13.377033,
            52.535397
          ],
          [
            13.370382,
            52.539887
          ],
          [
            13.36606,
            52.542732
          ],
          [
            13.359395,
            52.546493
          ],
          [
            13.351969,
            52.55047
          ],
          [
            13.341013,
            52.55667
          ],
          [
            13.333502,
            52.560862
          ],
          [
            13.327328,
            52.563483
          ],
          [
            13.311426,
            52.568096
          ],
          [
            13.300835,
            52.56952
          ],
          [
            13.294729,
            52.575937
          ],
          [
            13.289388,
            52.58294
          ],
          [
            13.282717,
            52.590209
          ]
        ]
      }
    },
    {
      "type": "Feature",
      "id": "U7",
      "properties": {
        "line": "U7",
        "name": "Berlin U-Bahn U7",
        "mode": "subway",
        "operator": "BVG",
        "color": "#009BD5",
        "stroke": "#009BD5",
        "stroke-width": 3,
        "stroke-opacity": 0.9,
        "from": "Rudow",
        "to": "Rathaus Spandau",
        "station_count": 40,
        "stations": [
          "Rudow",
          "Zwickauer Damm",
          "Wutzkyallee",
          "Lipschitzallee",
          "Johannisthaler Chaussee",
          "Britz-Süd",
          "Parchimer Allee",
          "Blaschkoallee",
          "Grenzallee",
          "Neukölln",
          "Karl-Marx-Str.",
          "Rathaus Neukölln",
          "Hermannplatz",
          "Südstern",
          "Gneisenaustr.",
          "Mehringdamm",
          "Möckernbrücke",
          "Yorckstr.",
          "Kleistpark",
          "Eisenacher Str.",
          "Bayerischer Platz",
          "Berliner Str.",
          "Blissestr.",
          "Fehrbelliner Platz",
          "Konstanzer Str.",
          "Adenauerplatz",
          "Wilmersdorfer Str.",
          "Bismarckstr.",
          "Richard-Wagner-Platz",
          "Mierendorffplatz",
          "Jungfernheide Bhf",
          "Jakob-Kaiser-Platz",
          "Halemweg",
          "Siemensdamm",
          "Rohrdamm",
          "Paulsternstr.",
          "Haselhorst",
          "Zitadelle",
          "Altstadt Spandau",
          "Rathaus Spandau"
        ],
        "source": "VBB GTFS-derived vbb-lines and vbb-stations datasets",
        "source_license": "CC BY 4.0"
      },
      "geometry": {
        "type": "LineString",
        "coordinates": [
          [
            13.496527,
            52.415714
          ],
          [
            13.484371,
            52.423032
          ],
          [
            13.47482,
            52.423152
          ],
          [
            13.463109,
            52.424645
          ],
          [
            13.453851,
            52.429253
          ],
          [
            13.447668,
            52.437076
          ],
          [
            13.449967,
            52.445299
          ],
          [
            13.448976,
            52.452743
          ],
          [
            13.444828,
            52.463516
          ],
          [
            13.443692,
            52.469282
          ],
          [
            13.439805,
            52.476429
          ],
          [
            13.434807,
            52.481146
          ],
          [
            13.42472,
            52.486957
          ],
          [
            13.407685,
            52.489219
          ],
          [
            13.395382,
            52.491252
          ],
          [
            13.38814,
            52.493567
          ],
          [
            13.383256,
            52.498944
          ],
          [
            13.372212,
            52.492358
          ],
          [
            13.360543,
            52.490686
          ],
          [
            13.350284,
            52.489477
          ],
          [
            13.340237,
            52.488654
          ],
          [
            13.331355,
            52.487047
          ],
          [
            13.320545,
            52.486478
          ],
          [
            13.314405,
            52.490365
          ],
          [
            13.310084,
            52.493567
          ],
          [
            13.307348,
            52.500086
          ],
          [
            13.306774,
            52.506415
          ],
          [
            13.305335,
            52.511543
          ],
          [
            13.307221,
            52.517154
          ],
          [
            13.305715,
            52.525978
          ],
          [
            13.300124,
            52.530452
          ],
          [
            13.293661,
            52.536985
          ],
          [
            13.286578,
            52.536703
          ],
          [
            13.273323,
            52.537026
          ],
          [
            13.26287,
            52.536904
          ],
          [
            13.248065,
            52.538127
          ],
          [
            13.231946,
            52.538687
          ],
          [
            13.217625,
            52.537522
          ],
          [
            13.206763,
            52.539161
          ],
          [
            13.199837,
            52.535641
          ]
        ]
      }
    },
    {
      "type": "Feature",
      "id": "U8",
      "properties": {
        "line": "U8",
        "name": "Berlin U-Bahn U8",
        "mode": "subway",
        "operator": "BVG",
        "color": "#224F86",
        "stroke": "#224F86",
        "stroke-width": 3,
        "stroke-opacity": 0.9,
        "from": "Wittenau",
        "to": "Hermannstr.",
        "station_count": 24,
        "stations": [
          "Wittenau",
          "Rathaus Reinickendorf",
          "Karl-Bonhoeffer-Nervenklinik",
          "Lindauer Allee",
          "Paracelsus-Bad",
          "Residenzstr.",
          "Franz-Neumann-Platz",
          "Osloer Str.",
          "Pankstr.",
          "Gesundbrunnen Bhf",
          "Voltastr.",
          "Bernauer Str.",
          "Rosenthaler Platz",
          "Weinmeisterstr.",
          "Alexanderplatz Bhf",
          "Jannowitzbrücke",
          "Heinrich-Heine-Str.",
          "Moritzplatz",
          "Kottbusser Tor",
          "Schönleinstr.",
          "Hermannplatz",
          "Boddinstr.",
          "Leinestr.",
          "Hermannstr."
        ],
        "source": "VBB GTFS-derived vbb-lines and vbb-stations datasets",
        "source_license": "CC BY 4.0"
      },
      "geometry": {
        "type": "LineString",
        "coordinates": [
          [
            13.335481,
            52.596392
          ],
          [
            13.325568,
            52.588218
          ],
          [
            13.332921,
            52.578169
          ],
          [
            13.339036,
            52.575386
          ],
          [
            13.347301,
            52.574432
          ],
          [
            13.360635,
            52.570843
          ],
          [
            13.364283,
            52.563854
          ],
          [
            13.373279,
            52.557107
          ],
          [
            13.381437,
            52.55228
          ],
          [
            13.388372,
            52.548637
          ],
          [
            13.393157,
            52.54193
          ],
          [
            13.396231,
            52.537994
          ],
          [
            13.401393,
            52.529781
          ],
          [
            13.405305,
            52.525376
          ],
          [
            13.411267,
            52.521512
          ],
          [
            13.418027,
            52.5155
          ],
          [
            13.416124,
            52.510558
          ],
          [
            13.410947,
            52.503739
          ],
          [
            13.417748,
            52.499047
          ],
          [
            13.421912,
            52.493341
          ],
          [
            13.42472,
            52.486957
          ],
          [
            13.425782,
            52.479745
          ],
          [
            13.4284,
            52.472874
          ],
          [
            13.431704,
            52.467181
          ]
        ]
      }
    },
    {
      "type": "Feature",
      "id": "U9",
      "properties": {
        "line": "U9",
        "name": "Berlin U-Bahn U9",
        "mode": "subway",
        "operator": "BVG",
        "color": "#F3791D",
        "stroke": "#F3791D",
        "stroke-width": 3,
        "stroke-opacity": 0.9,
        "from": "Osloer Str.",
        "to": "Rathaus Steglitz",
        "station_count": 18,
        "stations": [
          "Osloer Str.",
          "Nauener Platz",
          "Leopoldplatz",
          "Amrumer Str.",
          "Westhafen",
          "Birkenstr.",
          "Turmstr.",
          "Hansaplatz",
          "Zoologischer Garten Bhf",
          "Kurfürstendamm",
          "Spichernstr.",
          "Güntzelstr.",
          "Berliner Str.",
          "Bundesplatz",
          "Friedrich-Wilhelm-Platz",
          "Walther-Schreiber-Platz",
          "Schloßstr.",
          "Rathaus Steglitz"
        ],
        "source": "VBB GTFS-derived vbb-lines and vbb-stations datasets",
        "source_license": "CC BY 4.0"
      },
      "geometry": {
        "type": "LineString",
        "coordinates": [
          [
            13.373279,
            52.557107
          ],
          [
            13.367365,
            52.551524
          ],
          [
            13.359395,
            52.546493
          ],
          [
            13.349534,
            52.542202
          ],
          [
            13.343837,
            52.536183
          ],
          [
            13.341418,
            52.532269
          ],
          [
            13.341417,
            52.525938
          ],
          [
            13.342165,
            52.518111
          ],
          [
            13.332707,
            52.506921
          ],
          [
            13.331419,
            52.503763
          ],
          [
            13.330613,
            52.496582
          ],
          [
            13.33121,
            52.491992
          ],
          [
            13.331355,
            52.487047
          ],
          [
            13.328626,
            52.477667
          ],
          [
            13.328676,
            52.471439
          ],
          [
            13.328409,
            52.464998
          ],
          [
            13.324836,
            52.461183
          ],
          [
            13.322152,
            52.455066
          ]
        ]
      }
    }
  ]
}
